start=new Date('2022-03-23T00:00:00.000Z').valueOf();
sats=[{"MEAN_ELEMENT_THEORY":"SGP4","COUNTRY_CODE":"US","EPHEMERIS_TYPE":"0","CLASSIFICATION_TYPE":"U","TLE_LINE1":"1 46357U 20062AJ  22081.22940122  .00000989  00000-0  85316-4 0  9993","MEAN_ANOMALY":"309.9896","MEAN_MOTION_DDOT":"0.0000000000000","APOAPSIS":"548.365","OBJECT_TYPE":"PAYLOAD","ARG_OF_PERICENTER":"50.1239","MEAN_MOTION_DOT":"0.00000989","OBJECT_ID":"2020-062AJ","REV_AT_EPOCH":"8627","REF_FRAME":"TEME","GP_ID":"199395115","SITE":"AFETR","DECAY_DATE":null,"CENTER_NAME":"EARTH","EPOCH":"2022-03-22T05:30:20.265408","PERIAPSIS":"546.073","NORAD_CAT_ID":"46357","TIME_SYSTEM":"UTC","RCS_SIZE":"LARGE","BSTAR":"0.00008531600000","LAUNCH_DATE":"2020-09-03","ECCENTRICITY":"0.00016550","OBJECT_NAME":"STARLINK-1666","PERIOD":"95.592","INCLINATION":"53.0543","ELEMENT_SET_NO":"999","SEMIMAJOR_AXIS":"6925.354","MEAN_MOTION":"15.06398301","FILE":"3369829","RA_OF_ASC_NODE":"19.0096","TLE_LINE2":"2 46357  53.0543  19.0096 0001655  50.1239 309.9896 15.06398301 86272"},{"EPHEMERIS_TYPE":"0","COUNTRY_CODE":"US","MEAN_ELEMENT_THEORY":"SGP4","OBJECT_TYPE":"PAYLOAD","APOAPSIS":"548.558","TLE_LINE1":"1 46358U 20062AK  22081.60721704  .00000255  00000-0  36000-4 0  9991","CLASSIFICATION_TYPE":"U","MEAN_ANOMALY":"312.9277","MEAN_MOTION_DDOT":"0.0000000000000","REV_AT_EPOCH":"8605","REF_FRAME":"TEME","ARG_OF_PERICENTER":"47.1873","MEAN_MOTION_DOT":"0.00000255","OBJECT_ID":"2020-062AK","DECAY_DATE":null,"SITE":"AFETR","GP_ID":"199427875","PERIAPSIS":"545.897","CENTER_NAME":"EARTH","EPOCH":"2022-03-22T14:34:23.552256","BSTAR":"0.00003600000000","LAUNCH_DATE":"2020-09-03","RCS_SIZE":"LARGE","TIME_SYSTEM":"UTC","NORAD_CAT_ID":"46358","INCLINATION":"53.0555","ELEMENT_SET_NO":"999","SEMIMAJOR_AXIS":"6925.362","PERIOD":"95.592","OBJECT_NAME":"STARLINK-1690","ECCENTRICITY":"0.00019210","RA_OF_ASC_NODE":"37.3003","TLE_LINE2":"2 46358  53.0555  37.3003 0001921  47.1873 312.9277 15.06395559 86058","MEAN_MOTION":"15.06395559","FILE":"3370190"},{"REF_FRAME":"TEME","REV_AT_EPOCH":"8671","OBJECT_ID":"2020-062AL","ARG_OF_PERICENTER":"42.3646","MEAN_MOTION_DOT":"0.00002231","DECAY_DATE":null,"GP_ID":"199427879","SITE":"AFETR","COUNTRY_CODE":"US","EPHEMERIS_TYPE":"0","MEAN_ELEMENT_THEORY":"SGP4","OBJECT_TYPE":"PAYLOAD","MEAN_MOTION_DDOT":"0.0000000000000","MEAN_ANOMALY":"317.7498","TLE_LINE1":"1 46359U 20062AL  22081.85278429  .00002231  00000-0  16863-3 0  9990","CLASSIFICATION_TYPE":"U","APOAPSIS":"548.597","PERIOD":"95.592","SEMIMAJOR_AXIS":"6925.340","INCLINATION":"53.0555","ELEMENT_SET_NO":"999","OBJECT_NAME":"STARLINK-1707","ECCENTRICITY":"0.00020100","FILE":"3370190","MEAN_MOTION":"15.06402724","TLE_LINE2":"2 46359  53.0555 351.2174 0002010  42.3646 317.7498 15.06402724 86715","RA_OF_ASC_NODE":"351.2174","EPOCH":"2022-03-22T20:28:00.562656","CENTER_NAME":"EARTH","PERIAPSIS":"545.813","LAUNCH_DATE":"2020-09-03","BSTAR":"0.00016863000000","NORAD_CAT_ID":"46359","RCS_SIZE":"LARGE","TIME_SYSTEM":"UTC"},{"NORAD_CAT_ID":"46360","RCS_SIZE":"LARGE","TIME_SYSTEM":"UTC","BSTAR":"0.00001685200000","LAUNCH_DATE":"2020-09-03","CENTER_NAME":"EARTH","EPOCH":"2022-03-22T20:59:52.100448","PERIAPSIS":"546.053","MEAN_MOTION":"15.06392161","FILE":"3370190","RA_OF_ASC_NODE":"351.1177","TLE_LINE2":"2 46360  53.0562 351.1177 0001711  54.1509 305.9638 15.06392161 86722","ECCENTRICITY":"0.00017110","OBJECT_NAME":"STARLINK-1713","PERIOD":"95.593","ELEMENT_SET_NO":"999","INCLINATION":"53.0562","SEMIMAJOR_AXIS":"6925.373","CLASSIFICATION_TYPE":"U","TLE_LINE1":"1 46360U 20062AM  22081.87490857 -.00000031  00000-0  16852-4 0  9991","MEAN_MOTION_DDOT":"0.0000000000000","MEAN_ANOMALY":"305.9638","APOAPSIS":"548.423","OBJECT_TYPE":"PAYLOAD","MEAN_ELEMENT_THEORY":"SGP4","COUNTRY_CODE":"US","EPHEMERIS_TYPE":"0","GP_ID":"199427628","SITE":"AFETR","DECAY_DATE":null,"MEAN_MOTION_DOT":"-0.00000031","ARG_OF_PERICENTER":"54.1509","OBJECT_ID":"2020-062AM","REF_FRAME":"TEME","REV_AT_EPOCH":"8672"},{"ECCENTRICITY":"0.00014560","OBJECT_NAME":"STARLINK-1722","SEMIMAJOR_AXIS":"6925.358","INCLINATION":"53.0547","ELEMENT_SET_NO":"999","PERIOD":"95.592","TLE_LINE2":"2 46361  53.0547 350.9592 0001456  63.1551 296.9586 15.06397071 86723","RA_OF_ASC_NODE":"350.9592","FILE":"3370190","MEAN_MOTION":"15.06397071","PERIAPSIS":"546.214","EPOCH":"2022-03-22T21:52:56.011296","CENTER_NAME":"EARTH","TIME_SYSTEM":"UTC","RCS_SIZE":"LARGE","NORAD_CAT_ID":"46361","LAUNCH_DATE":"2020-09-03","BSTAR":"0.00006725700000","OBJECT_ID":"2020-062AN","ARG_OF_PERICENTER":"63.1551","MEAN_MOTION_DOT":"0.00000720","REF_FRAME":"TEME","REV_AT_EPOCH":"8672","SITE":"AFETR","GP_ID":"199427124","DECAY_DATE":null,"MEAN_ELEMENT_THEORY":"SGP4","EPHEMERIS_TYPE":"0","COUNTRY_CODE":"US","APOAPSIS":"548.231","MEAN_ANOMALY":"296.9586","MEAN_MOTION_DDOT":"0.0000000000000","CLASSIFICATION_TYPE":"U","TLE_LINE1":"1 46361U 20062AN  22081.91175939  .00000720  00000-0  67257-4 0  9997","OBJECT_TYPE":"PAYLOAD"},{"ECCENTRICITY":"0.00018460","OBJECT_NAME":"STARLINK-1726","PERIOD":"95.592","SEMIMAJOR_AXIS":"6925.323","INCLINATION":"53.0561","ELEMENT_SET_NO":"999","FILE":"3370190","MEAN_MOTION":"15.06408403","TLE_LINE2":"2 46362  53.0561 351.0405 0001846  58.9879 301.1291 15.06408403 86727","RA_OF_ASC_NODE":"351.0405","EPOCH":"2022-03-22T21:21:04.806144","CENTER_NAME":"EARTH","PERIAPSIS":"545.909","NORAD_CAT_ID":"46362","TIME_SYSTEM":"UTC","RCS_SIZE":"LARGE","LAUNCH_DATE":"2020-09-03","BSTAR":"0.00047654000000","OBJECT_ID":"2020-062AP","MEAN_MOTION_DOT":"0.00006825","ARG_OF_PERICENTER":"58.9879","REF_FRAME":"TEME","REV_AT_EPOCH":"8672","GP_ID":"199427375","SITE":"AFETR","DECAY_DATE":null,"MEAN_ELEMENT_THEORY":"SGP4","COUNTRY_CODE":"US","EPHEMERIS_TYPE":"0","MEAN_ANOMALY":"301.1291","MEAN_MOTION_DDOT":"0.0000000000000","TLE_LINE1":"1 46362U 20062AP  22081.88963896  .00006825  00000-0  47654-3 0  9991","CLASSIFICATION_TYPE":"U","APOAPSIS":"548.466","OBJECT_TYPE":"PAYLOAD"},{"REV_AT_EPOCH":"8672","REF_FRAME":"TEME","MEAN_MOTION_DOT":"0.00006787","ARG_OF_PERICENTER":"54.4573","OBJECT_ID":"2020-062AQ","DECAY_DATE":null,"GP_ID":"199427379","SITE":"AFETR","COUNTRY_CODE":"US","EPHEMERIS_TYPE":"0","MEAN_ELEMENT_THEORY":"SGP4","OBJECT_TYPE":"PAYLOAD","CLASSIFICATION_TYPE":"U","TLE_LINE1":"1 46363U 20062AQ  22081.88227381  .00006787  00000-0  47404-3 0  9994","MEAN_ANOMALY":"305.6601","MEAN_MOTION_DDOT":"0.0000000000000","APOAPSIS":"548.573","PERIOD":"95.592","ELEMENT_SET_NO":"999","INCLINATION":"53.0548","SEMIMAJOR_AXIS":"6925.334","OBJECT_NAME":"STARLINK-1739","ECCENTRICITY":"0.00019830","MEAN_MOTION":"15.06404591","FILE":"3370190","RA_OF_ASC_NODE":"351.0705","TLE_LINE2":"2 46363  53.0548 351.0705 0001983  54.4573 305.6601 15.06404591 86728","CENTER_NAME":"EARTH","EPOCH":"2022-03-22T21:10:28.457184","PERIAPSIS":"545.826","BSTAR":"0.00047404000000","LAUNCH_DATE":"2020-09-03","NORAD_CAT_ID":"46363","RCS_SIZE":"LARGE","TIME_SYSTEM":"UTC"},{"ELEMENT_SET_NO":"999","INCLINATION":"53.0503","SEMIMAJOR_AXIS":"6925.348","PERIOD":"95.592","ECCENTRICITY":"0.00035540","OBJECT_NAME":"STARLINK-1763","RA_OF_ASC_NODE":"331.0308","TLE_LINE2":"2 46364  53.0503 331.0308 0003554 157.1312 202.9836 15.06400132 87003","MEAN_MOTION":"15.06400132","FILE":"3370190","PERIAPSIS":"544.752","CENTER_NAME":"EARTH","EPOCH":"2022-03-22T21:43:36.962688","BSTAR":"0.00003007800000","LAUNCH_DATE":"2020-09-03","TIME_SYSTEM":"UTC","RCS_SIZE":"LARGE","NORAD_CAT_ID":"46364","REF_FRAME":"TEME","REV_AT_EPOCH":"8700","MEAN_MOTION_DOT":"0.00000166","ARG_OF_PERICENTER":"157.1312","OBJECT_ID":"2020-062AR","DECAY_DATE":null,"SITE":"AFETR","GP_ID":"199428129","EPHEMERIS_TYPE":"0","COUNTRY_CODE":"US","MEAN_ELEMENT_THEORY":"SGP4","OBJECT_TYPE":"PAYLOAD","APOAPSIS":"549.674","TLE_LINE1":"1 46364U 20062AR  22081.90528892  .00000166  00000-0  30078-4 0  9994","CLASSIFICATION_TYPE":"U","MEAN_MOTION_DDOT":"0.0000000000000","MEAN_ANOMALY":"202.9836"},{"REF_FRAME":"TEME","REV_AT_EPOCH":"8671","MEAN_MOTION_DOT":"-0.00000960","ARG_OF_PERICENTER":"56.8554","OBJECT_ID":"2020-062AS","DECAY_DATE":null,"SITE":"AFETR","GP_ID":"199426624","EPHEMERIS_TYPE":"0","COUNTRY_CODE":"US","MEAN_ELEMENT_THEORY":"SGP4","OBJECT_TYPE":"PAYLOAD","APOAPSIS":"548.435","CLASSIFICATION_TYPE":"U","TLE_LINE1":"1 46365U 20062AS  22081.86015931 -.00000960  00000-0 -45544-4 0  9993","MEAN_ANOMALY":"303.2602","MEAN_MOTION_DDOT":"0.0000000000000","INCLINATION":"53.0547","ELEMENT_SET_NO":"999","SEMIMAJOR_AXIS":"6925.362","PERIOD":"95.592","OBJECT_NAME":"STARLINK-1550","ECCENTRICITY":"0.00017450","RA_OF_ASC_NODE":"351.1725","TLE_LINE2":"2 46365  53.0547 351.1725 0001745  56.8554 303.2602 15.06395691 86717","MEAN_MOTION":"15.06395691","FILE":"3370190","PERIAPSIS":"546.018","CENTER_NAME":"EARTH","EPOCH":"2022-03-22T20:38:37.764384","BSTAR":"-0.00004554400000","LAUNCH_DATE":"2020-09-03","RCS_SIZE":"LARGE","TIME_SYSTEM":"UTC","NORAD_CAT_ID":"46365"},{"DECAY_DATE":null,"SITE":"AFETR","GP_ID":"199427876","REF_FRAME":"TEME","REV_AT_EPOCH":"8672","ARG_OF_PERICENTER":"62.0681","MEAN_MOTION_DOT":"-0.00000215","OBJECT_ID":"2020-062AT","OBJECT_TYPE":"PAYLOAD","APOAPSIS":"548.253","TLE_LINE1":"1 46366U 20062AT  22081.91545078 -.00000215  00000-0  44454-5 0  9992","CLASSIFICATION_TYPE":"U","MEAN_ANOMALY":"298.0461","MEAN_MOTION_DDOT":"0.0000000000000","EPHEMERIS_TYPE":"0","COUNTRY_CODE":"US","MEAN_ELEMENT_THEORY":"SGP4","RA_OF_ASC_NODE":"350.9288","TLE_LINE2":"2 46366  53.0559 350.9288 0001513  62.0681 298.0461 15.06402598 86725","MEAN_MOTION":"15.06402598","FILE":"3370190","ELEMENT_SET_NO":"999","INCLINATION":"53.0559","SEMIMAJOR_AXIS":"6925.341","PERIOD":"95.592","OBJECT_NAME":"STARLINK-1651","ECCENTRICITY":"0.00015130","BSTAR":"0.00000444540000","LAUNCH_DATE":"2020-09-03","RCS_SIZE":"LARGE","TIME_SYSTEM":"UTC","NORAD_CAT_ID":"46366","PERIAPSIS":"546.158","CENTER_NAME":"EARTH","EPOCH":"2022-03-22T21:58:14.947392"}];
